sat26004
1 26004U 91068P   20046.94345067  .00000807  00000-0  39145-2 0  9995
2 26004  82.5806  40.6737 0098148 336.2389  50.3142 12.70459727937541
